NORAD_CAT_ID,OBJECT_NAME,OBJECT_TYPE,EPOCH,MEAN_MOTION,ECCENTRICITY,INCLINATION,RA_OF_ASC_NODE,ARG_OF_PERICENTER,MEAN_ANOMALY,BSTAR,MEAN_MOTION_DOT,MEAN_MOTION_DDOT,TLE_LINE0,TLE_LINE1,TLE_LINE2,SEMIMAJOR_AXIS,PERIOD,APOGEE,PERIGEE,DECAYED
55670.0,STARLINK-5423,PAYLOAD,2023-10-19 04:28:55,14.98337595,0.0002693,70.0021,204.2785,272.3413,87.7438,4.6843e-05,4.66e-06,0.0,0 STARLINK-5423,1 55670U 23021AU  23292.18675653  .00000466  00000-0  46843-4 0  9995,2 55670  70.0021 204.2785 0002693 272.3413  87.7438 14.98337595 38298,6950.169,96.107,573.906,570.163,0.0
55670.0,STARLINK-5423,PAYLOAD,2023-10-20 04:30:56,14.98336063,0.00024,70.0021,201.7537,272.8058,87.2827,4.1278e-05,4e-06,0.0,0 STARLINK-5423,1 55670U 23021AU  23293.18815496  .00000400  00000-0  41278-4 0  9992,2 55670  70.0021 201.7537 0002400 272.8058  87.2827 14.98336063 38444,6950.174,96.107,573.707,570.371,0.0
55670.0,STARLINK-5423,PAYLOAD,2023-10-20 20:32:18,14.98317357,0.0002856,70.0049,200.0707,247.0545,113.0313,1.1742e-05,4.7e-07,0.0,0 STARLINK-5423,1 55670U 23021AU  23293.85576675  .00000047  00000-0  11742-4 0  9999,2 55670  70.0049 200.0707 0002856 247.0545 113.0313 14.98317357 38549,6950.232,96.108,574.082,570.112,0.0
55670.0,STARLINK-5423,PAYLOAD,2023-10-20 22:08:26,14.98323984,0.0002523,70.0024,199.9029,236.6393,123.4525,-0.00011171,-1.425e-05,0.0,0 STARLINK-5423,1 55670U 23021AU  23293.92252596 -.00001425  00000-0 -11171-3 0  9998,2 55670  70.0024 199.9029 0002523 236.6393 123.4525 14.98323984 38858,6950.211,96.107,573.83,570.323,0.0
55670.0,STARLINK-5423,PAYLOAD,2023-10-21 10:57:30,14.98332802,0.0002924,70.0008,198.5581,266.8875,93.1949,-7.1028e-05,-9.4e-06,0.0,0 STARLINK-5423,1 55670U 23021AU  23294.45660129 -.00000940  00000-0 -71028-4 0  9991,2 55670  70.0008 198.5581 0002924 266.8875  93.1949 14.98332802 38631,6950.184,96.107,574.081,570.017,0.0
55670.0,STARLINK-5423,PAYLOAD,2023-10-21 20:34:17,14.98343414,0.0002651,70.0019,197.5479,267.2262,92.8594,7.2497e-05,7.72e-06,0.0,0 STARLINK-5423,1 55670U 23021AU  23294.85715099  .00000772  00000-0  72497-4 0  9994,2 55670  70.0019 197.5479 0002651 267.2262  92.8594 14.98343414 38699,6950.151,96.106,573.859,570.174,0.0
55670.0,STARLINK-5423,PAYLOAD,2023-10-21 22:10:25,14.98345828,0.0002698,70.0013,197.3799,265.4606,94.6245,7.9674e-05,8.58e-06,0.0,0 STARLINK-5423,1 55670U 23021AU  23294.92390846  .00000858  00000-0  79674-4 0  9990,2 55670  70.0013 197.3799 0002698 265.4606  94.6245 14.98345828 39009,6950.144,96.106,573.884,570.134,0.0
55670.0,STARLINK-5423,PAYLOAD,2023-10-22 04:34:57,14.98349009,0.0002632,70.001,196.7045,264.8947,95.1911,0.00012659,1.419e-05,0.0,0 STARLINK-5423,1 55670U 23021AU  23295.19094231  .00001419  00000-0  12659-3 0  9992,2 55670  70.0010 196.7045 0002632 264.8947  95.1911 14.98349009 38743,6950.134,96.106,573.828,570.17,0.0
55670.0,STARLINK-5423,PAYLOAD,2023-10-22 20:36:20,14.9831881,0.0002645,70.0009,195.0224,247.765,112.3228,3.2189e-05,2.91e-06,0.0,0 STARLINK-5423,1 55670U 23021AU  23295.85856564  .00000291  00000-0  32189-4 0  9998,2 55670  70.0009 195.0224 0002645 247.7650 112.3228 14.98318810 38847,6950.227,96.108,573.931,570.254,0.0
55670.0,STARLINK-5423,PAYLOAD,2023-10-22 22:12:28,14.98313643,0.0002612,70.0018,194.8546,248.9916,111.0964,4.3479e-05,4.26e-06,0.0,0 STARLINK-5423,1 55670U 23021AU  23295.92532912  .00000426  00000-0  43479-4 0  9998,2 55670  70.0018 194.8546 0002612 248.9916 111.0964 14.98313643 39150,6950.243,96.108,573.924,570.293,0.0
55670.0,STARLINK-5423,PAYLOAD,2023-10-23 03:00:53,14.98307134,0.0002867,70.0016,194.3483,246.3272,113.7587,-3.4321e-05,-5.02e-06,0.0,0 STARLINK-5423,1 55670U 23021AU  23296.12561543 -.00000502  00000-0 -34321-4 0  9996,2 55670  70.0016 194.3483 0002867 246.3272 113.7587 14.98307134 38889,6950.264,96.108,574.121,570.136,0.0
55670.0,STARLINK-5423,PAYLOAD,2023-10-23 20:38:21,14.98330783,0.000292,70.0012,192.4981,268.9757,91.1068,-0.00012157,-1.543e-05,0.0,0 STARLINK-5423,1 55670U 23021AU  23296.85996668 -.00001543  00000-0 -12157-3 0  9994,2 55670  70.0012 192.4981 0002920 268.9757  91.1068 14.98330783 38996,6950.19,96.107,574.085,570.026,0.0
55670.0,STARLINK-5423,PAYLOAD,2023-10-23 22:14:29,14.98330111,0.0002859,70.0015,192.3289,266.2923,93.7909,-7.3542e-05,-9.7e-06,0.0,0 STARLINK-5423,1 55670U 23021AU  23296.92672560 -.00000970  00000-0 -73542-4 0  9993,2 55670  70.0015 192.3289 0002859 266.2923  93.7909 14.98330111 39309,6950.193,96.107,574.045,570.07,0.0
55670.0,STARLINK-5423,PAYLOAD,2023-10-24 03:02:52,14.98338415,0.0002915,70.0005,191.8236,269.2643,90.8182,-5.6644e-05,-7.69e-06,0.0,0 STARLINK-5423,1 55670U 23021AU  23297.12699969 -.00000769  00000-0 -56644-4 0  9998,2 55670  70.0005 191.8236 0002915 269.2643  90.8182 14.98338415 39035,6950.167,96.106,574.058,570.006,0.0
55670.0,STARLINK-5423,PAYLOAD,2023-10-24 11:03:33,14.98339055,0.0002767,70.0007,190.9829,271.3151,88.7691,-9.8214e-05,-1.265e-05,0.0,0 STARLINK-5423,1 55670U 23021AU  23297.46079948 -.00001265  00000-0 -98214-4 0  9995,2 55670  70.0007 190.9829 0002767 271.3151  88.7691 14.98339055 39388,6950.165,96.106,573.953,570.107,0.0
55670.0,STARLINK-5423,PAYLOAD,2023-10-25 03:04:52,14.98339433,0.0002862,70.0008,189.2995,274.869,85.2142,0.00033821,3.946e-05,0.0,0 STARLINK-5423,1 55670U 23021AU  23298.12838774  .00003946  00000-0  33821-3 0  9997,2 55670  70.0008 189.2995 0002862 274.8690  85.2142 14.98339433 39187,6950.164,96.106,574.018,570.04,0.0
55670.0,STARLINK-5423,PAYLOAD,2023-10-26 03:06:54,14.98332192,0.0003175,70.0,186.7749,270.4822,89.5974,1.5604e-05,9.3e-07,0.0,0 STARLINK-5423,1 55670U 23021AU  23299.12979796  .00000093  00000-0  15604-4 0  9998,2 55670  70.0000 186.7749 0003175 270.4822  89.5974 14.98332192 39337,6950.186,96.107,574.258,569.844,0.0
55670.0,STARLINK-5423,PAYLOAD,2023-10-26 20:44:23,14.98338015,0.0002878,70.0003,184.9239,264.7639,95.3192,-9.9357e-05,-1.279e-05,0.0,0 STARLINK-5423,1 55670U 23021AU  23299.86415544 -.00001279  00000-0 -99357-4 0  9991,2 55670  70.0003 184.9239 0002878 264.7639  95.3192 14.98338015 39747,6950.168,96.106,574.033,570.033,0.0
55670.0,STARLINK-5423,PAYLOAD,2023-10-27 03:08:54,14.98346937,0.0003041,70.0,184.2497,268.7669,91.3141,-4.8439e-05,-6.71e-06,0.0,0 STARLINK-5423,1 55670U 23021AU  23300.13118606 -.00000671  00000-0 -48439-4 0  9993,2 55670  70.0000 184.2497 0003041 268.7669  91.3141 14.98346937 39486,6950.141,96.106,574.119,569.892,0.0
55670.0,STARLINK-5423,PAYLOAD,2023-10-27 09:33:27,14.98343956,0.0003,69.9998,183.5761,275.4859,84.5958,-0.00022699,-2.801e-05,0.0,0 STARLINK-5423,1 55670U 23021AU  23300.39823038 -.00002801  00000-0 -22699-3 0  9999,2 55670  69.9998 183.5761 0003000 275.4859  84.5958 14.98343956 39529,6950.15,96.106,574.1,569.93,0.0
55670.0,STARLINK-5423,PAYLOAD,2023-10-27 20:46:24,14.98326889,0.0002827,69.9996,182.3991,262.3876,97.6962,-3.0446e-05,-4.56e-06,0.0,0 STARLINK-5423,1 55670U 23021AU  23300.86555668 -.00000456  00000-0 -30446-4 0  9996,2 55670  69.9996 182.3991 0002827 262.3876  97.6962 14.98326889 39592,6950.203,96.107,574.032,570.103,0.0
55670.0,STARLINK-5423,PAYLOAD,2023-10-27 22:22:32,14.98325389,0.00029,69.9999,182.2312,265.913,94.1698,-3.251e-05,-4.81e-06,0.0,0 STARLINK-5423,1 55670U 23021AU  23300.93231793 -.00000481  00000-0 -32510-4 0  9996,2 55670  69.9999 182.2312 0002900 265.9130  94.1698 14.98325389 39902,6950.207,96.107,574.088,570.057,0.0
55670.0,STARLINK-5423,PAYLOAD,2023-10-28 09:35:29,14.98324388,0.0002781,70.0001,181.0523,272.4055,87.6785,-6.0911e-05,-8.2e-06,0.0,0 STARLINK-5423,1 55670U 23021AU  23301.39964134 -.00000820  00000-0 -60911-4 0  9992,2 55670  70.0001 181.0523 0002781 272.4055  87.6785 14.98324388 39975,6950.21,96.107,574.008,570.142,0.0
55670.0,STARLINK-5423,PAYLOAD,2023-10-28 20:48:25,14.98327827,0.0002774,70.0002,179.8738,263.8023,96.282,-3.3777e-05,-4.96e-06,0.0,0 STARLINK-5423,1 55670U 23021AU  23301.86695910 -.00000496  00000-0 -33777-4 0  9996,2 55670  70.0002 179.8738 0002774 263.8023  96.2820 14.98327827 39742,6950.2,96.107,573.993,570.137,0.0
55670.0,STARLINK-5423,PAYLOAD,2023-10-28 22:24:34,14.98305142,0.000266,70.0008,179.7049,254.282,105.8045,2.7513e-05,2.35e-06,0.0,0 STARLINK-5423,1 55670U 23021AU  23301.93373045  .00000235  00000-0  27513-4 0  9996,2 55670  70.0008 179.7049 0002660 254.2820 105.8045 14.98305142 40053,6950.27,96.109,573.984,570.286,0.0
55670.0,STARLINK-5423,PAYLOAD,2023-10-29 01:36:48,14.98336827,0.0002433,70.0005,179.3685,264.7201,95.368,9.3285e-05,1.02e-05,0.0,0 STARLINK-5423,1 55670U 23021AU  23302.06723124  .00001020  00000-0  93285-4 0  9990,2 55670  70.0005 179.3685 0002433 264.7201  95.3680 14.98336827 39778,6950.172,96.107,573.728,570.346,0.0
55670.0,STARLINK-5423,PAYLOAD,2023-10-29 09:37:29,14.98329491,0.0002552,70.0008,178.5265,262.4292,97.6577,1.6341e-05,1.02e-06,0.0,0 STARLINK-5423,1 55670U 23021AU  23302.40103666  .00000102  00000-0  16341-4 0  9999,2 55670  70.0008 178.5265 0002552 262.4292  97.6577 14.98329491 39828,6950.194,96.107,573.833,570.286,0.0
55670.0,STARLINK-5423,PAYLOAD,2023-10-29 20:50:24,14.9834058,0.0003016,70.0003,177.349,271.9073,88.174,0.00025976,3.009e-05,0.0,0 STARLINK-5423,1 55670U 23021AU  23302.86833907  .00003009  00000-0  25976-3 0  9999,2 55670  70.0003 177.3490 0003016 271.9073  88.1740 14.98340580 39894,6950.16,96.106,574.121,569.929,0.0
55670.0,STARLINK-5423,PAYLOAD,2023-10-29 22:26:22,14.98472108,0.0003166,70.0006,177.1802,260.8364,99.2437,0.0016905,0.00020211,0.0,0 STARLINK-5423,1 55670U 23021AU  23302.93498388  .00020211  00000-0  16905-2 0  9992,2 55670  70.0006 177.1802 0003166 260.8364  99.2437 14.98472108 40203,6949.753,96.098,573.819,569.418,0.0
55670.0,STARLINK-5423,PAYLOAD,2023-10-30 01:38:47,14.98347974,0.0003043,70.0003,176.8439,264.7377,95.3435,0.00028514,3.312e-05,0.0,0 STARLINK-5423,1 55670U 23021AU  23303.06861086  .00003312  00000-0  28514-3 0  9999,2 55670  70.0003 176.8439 0003043 264.7377  95.3435 14.98347974 39927,6950.137,96.106,574.117,569.887,0.0
